{"type": "FeatureCollection", "features": [ {"type": "Feature", "properties": {"norad_id": 37331, "name": "COSMOS 2251 DEB", "group": "cosmos-2251-debris", "lat": 45.384438059042694, "lon": 92.00755567062325, "alt_km": 741.6909096758372, "timestamp": "2025-12-08T17:43:05.335663+00:00", "meta": {"OBJECT_NAME": "COSMOS 2251 DEB", "OBJECT_ID": "1993-036BKX", "EPOCH": "2025-12-07T13:03:14.035680", "MEAN_MOTION": 14.35000366, "ECCENTRICITY": 0.00554499, "INCLINATION": 74.0747, "RA_OF_ASC_NODE": 77.37, "ARG_OF_PERICENTER": 93.3807, "MEAN_ANOMALY": 267.3691, "EPHEMERIS_TYPE": 0, "CLASSIFICATION_TYPE": "U", "NORAD_CAT_ID": 37331, "ELEMENT_SET_NO": 999, "REV_AT_EPOCH": 84685, "BSTAR": 0.0010030758, "MEAN_MOTION_DOT": 2.883e-05, "MEAN_MOTION_DDOT": 0}, "tle": {"line1": "1 37331U 93036BKX 25341.54391245  .00002883  00000+0  10031-2 0  9993", "line2": "2 37331  74.0747  77.3700 0055449  93.3807 267.3691 14.35000366846852"}}, "geometry": {"type": "Point", "coordinates": [92.00755567062325, 45.384438059042694]}}, {"type": "Feature", "properties": {"norad_id": 37336, "name": "COSMOS 2251 DEB", "group": "cosmos-2251-debris", "lat": 57.33549837591727, "lon": 5.033748981378507, "alt_km": 756.1982608788776, "timestamp": "2025-12-08T17:43:05.335674+00:00", "meta": {"OBJECT_NAME": "COSMOS 2251 DEB", "OBJECT_ID": "1993-036BLC", "EPOCH": "2025-12-01T07:48:14.136768", "MEAN_MOTION": 14.32750931, "ECCENTRICITY": 0.00286304, "INCLINATION": 74.0414, "RA_OF_ASC_NODE": 352.0528, "ARG_OF_PERICENTER": 73.4193, "MEAN_ANOMALY": 287.0099, "EPHEMERIS_TYPE": 0, "CLASSIFICATION_TYPE": "U", "NORAD_CAT_ID": 37336, "ELEMENT_SET_NO": 999, "REV_AT_EPOCH": 64956, "BSTAR": 8.422431e-05, "MEAN_MOTION_DOT": 2.05e-06, "MEAN_MOTION_DDOT": 0}, "tle": {"line1": "1 37336U 93036BLC 25335.32516362  .00000205  00000+0  84224-4 0  9999", "line2": "2 37336  74.0414 352.0528 0028630  73.4193 287.0099 14.32750931649565"}}, "geometry": {"type": "Point", "coordinates": [5.033748981378507, 57.33549837591727]}}, {"type": "Feature", "properties": {"norad_id": 37340, "name": "COSMOS 2251 DEB", "group": "cosmos-2251-debris", "lat": -39.538968832177694, "lon": 118.19696805627026, "alt_km": 786.4755499751755, "timestamp": "2025-12-08T17:43:05.335684+00:00", "meta": {"OBJECT_NAME": "COSMOS 2251 DEB", "OBJECT_ID": "1993-036BLG", "EPOCH": "2025-12-05T05:08:42.934848", "MEAN_MOTION": 14.36908075, "ECCENTRICITY": 0.00174259, "INCLINATION": 74.0249, "RA_OF_ASC_NODE": 290.9993, "ARG_OF_PERICENTER": 27.9023, "MEAN_ANOMALY": 332.3061, "EPHEMERIS_TYPE": 0, "CLASSIFICATION_TYPE": "U", "NORAD_CAT_ID": 37340, "ELEMENT_SET_NO": 999, "REV_AT_EPOCH": 83959, "BSTAR": 0.00037521661, "MEAN_MOTION_DOT": 1.086e-05, "MEAN_MOTION_DDOT": 0}, "tle": {"line1": "1 37340U 93036BLG 25339.21438582  .00001086  00000+0  37522-3 0  9999", "line2": "2 37340  74.0249 290.9993 0017425  27.9023 332.3061 14.36908075839593"}}, "geometry": {"type": "Point", "coordinates": [118.19696805627026, -39.538968832177694]}}, {"type": "Feature", "properties": {"norad_id": 37483, "name": "COSMOS 2251 DEB", "group": "cosmos-2251-debris", "lat": -54.39178543783572, "lon": -5.533959719269667, "alt_km": 786.5867327348697, "timestamp": "2025-12-08T17:43:05.335695+00:00", "meta": {"OBJECT_NAME": "COSMOS 2251 DEB", "OBJECT_ID": "1993-036BLL", "EPOCH": "2025-12-06T21:22:19.313184", "MEAN_MOTION": 14.43543029, "ECCENTRICITY": 0.00928393, "INCLINATION": 73.9727, "RA_OF_ASC_NODE": 154.2477, "ARG_OF_PERICENTER": 2.0807, "MEAN_ANOMALY": 358.0716, "EPHEMERIS_TYPE": 0, "CLASSIFICATION_TYPE": "U", "NORAD_CAT_ID": 37483, "ELEMENT_SET_NO": 999, "REV_AT_EPOCH": 65195, "BSTAR": 0.00034556267, "MEAN_MOTION_DOT": 1.204e-05, "MEAN_MOTION_DDOT": 0}, "tle": {"line1": "1 37483U 93036BLL 25340.89050131  .00001204  00000+0  34556-3 0  9999", "line2": "2 37483  73.9727 154.2477 0092839   2.0807 358.0716 14.43543029651951"}}, "geometry": {"type": "Point", "coordinates": [-5.533959719269667, -54.39178543783572]}}, {"type": "Feature", "properties": {"norad_id": 37484, "name": "COSMOS 2251 DEB", "group": "cosmos-2251-debris", "lat": 26.19755629021474, "lon": 27.740270865549064, "alt_km": 755.6124724422743, "timestamp": "2025-12-08T17:43:05.335706+00:00", "meta": {"OBJECT_NAME": "COSMOS 2251 DEB", "OBJECT_ID": "1993-036BLM", "EPOCH": "2025-12-06T08:56:33.254304", "MEAN_MOTION": 14.41742642, "ECCENTRICITY": 0.00400909, "INCLINATION": 73.8227, "RA_OF_ASC_NODE": 220.3904, "ARG_OF_PERICENTER": 256.1563, "MEAN_ANOMALY": 223.2643, "EPHEMERIS_TYPE": 0, "CLASSIFICATION_TYPE": "U", "NORAD_CAT_ID": 37484, "ELEMENT_SET_NO": 999, "REV_AT_EPOCH": 65287, "BSTAR": 0.0013292575, "MEAN_MOTION_DOT": 4.354e-05, "MEAN_MOTION_DDOT": 0}, "tle": {"line1": "1 37484U 93036BLM 25340.37260711  .00004354  00000+0  13293-2 0  9993", "line2": "2 37484  73.8227 220.3904 0040090 256.1563 223.2643 14.41742642652873"}}, "geometry": {"type": "Point", "coordinates": [27.740270865549064, 26.19755629021474]}}, {"type": "Feature", "properties": {"norad_id": 37486, "name": "COSMOS 2251 DEB", "group": "cosmos-2251-debris", "lat": 68.47451521608436, "lon": -106.09507998175127, "alt_km": 904.2644697559563, "timestamp": "2025-12-08T17:43:05.335716+00:00", "meta": {"OBJECT_NAME": "COSMOS 2251 DEB", "OBJECT_ID": "1993-036BLP", "EPOCH": "2025-12-07T02:42:27.056160", "MEAN_MOTION": 14.1325012, "ECCENTRICITY": 0.02291574, "INCLINATION": 73.6904, "RA_OF_ASC_NODE": 124.7715, "ARG_OF_PERICENTER": 353.7745, "MEAN_ANOMALY": 121.3537, "EPHEMERIS_TYPE": 0, "CLASSIFICATION_TYPE": "U", "NORAD_CAT_ID": 37486, "ELEMENT_SET_NO": 999, "REV_AT_EPOCH": 63290, "BSTAR": 0.0027844399, "MEAN_MOTION_DOT": 6.678e-05, "MEAN_MOTION_DDOT": 0}, "tle": {"line1": "1 37486U 93036BLP 25341.11281315  .00006678  00000+0  27844-2 0  9999", "line2": "2 37486  73.6904 124.7715 0229157 353.7745 121.3537 14.13250120632907"}}, "geometry": {"type": "Point", "coordinates": [-106.09507998175127, 68.47451521608436]}}, {"type": "Feature", "properties": {"norad_id": 37487, "name": "COSMOS 2251 DEB", "group": "cosmos-2251-debris", "lat": -54.51222053726921, "lon": 176.15068205251774, "alt_km": 635.4772228622596, "timestamp": "2025-12-08T17:43:05.335727+00:00", "meta": {"OBJECT_NAME": "COSMOS 2251 DEB", "OBJECT_ID": "1993-036BLQ", "EPOCH": "2025-12-06T07:36:14.773824", "MEAN_MOTION": 14.80609361, "ECCENTRICITY": 0.00252454, "INCLINATION": 73.9019, "RA_OF_ASC_NODE": 204.8571, "ARG_OF_PERICENTER": 44.15, "MEAN_ANOMALY": 316.1684, "EPHEMERIS_TYPE": 0, "CLASSIFICATION_TYPE": "U", "NORAD_CAT_ID": 37487, "ELEMENT_SET_NO": 999, "REV_AT_EPOCH": 81150, "BSTAR": 0.0050036629, "MEAN_MOTION_DOT": 0.00038806, "MEAN_MOTION_DDOT": 0}, "tle": {"line1": "1 37487U 93036BLQ 25340.31683766  .00038806  00000+0  50037-2 0  9995", "line2": "2 37487  73.9019 204.8571 0025245  44.1500 316.1684 14.80609361811501"}}, "geometry": {"type": "Point", "coordinates": [176.15068205251774, -54.51222053726921]}}, {"type": "Feature", "properties": {"norad_id": 37491, "name": "COSMOS 2251 DEB", "group": "cosmos-2251-debris", "lat": 38.86125215590706, "lon": 87.35276929423895, "alt_km": 1140.2225757681854, "timestamp": "2025-12-08T17:43:05.335737+00:00", "meta": {"OBJECT_NAME": "COSMOS 2251 DEB", "OBJECT_ID": "1993-036BLU", "EPOCH": "2025-12-03T14:48:31.500000", "MEAN_MOTION": 13.75236476, "ECCENTRICITY": 0.03180692, "INCLINATION": 73.9058, "RA_OF_ASC_NODE": 289.3863, "ARG_OF_PERICENTER": 284.0782, "MEAN_ANOMALY": 72.518, "EPHEMERIS_TYPE": 0, "CLASSIFICATION_TYPE": "U", "NORAD_CAT_ID": 37491, "ELEMENT_SET_NO": 999, "REV_AT_EPOCH": 55621, "BSTAR": 0.0021635807, "MEAN_MOTION_DOT": 2.973e-05, "MEAN_MOTION_DDOT": 0}, "tle": {"line1": "1 37491U 93036BLU 25337.61703125  .00002973  00000+0  21636-2 0  9990", "line2": "2 37491  73.9058 289.3863 0318069 284.0782  72.5180 13.75236476556211"}}, "geometry": {"type": "Point", "coordinates": [87.35276929423895, 38.86125215590706]}}, {"type": "Feature", "properties": {"norad_id": 37498, "name": "COSMOS 2251 DEB", "group": "cosmos-2251-debris", "lat": 51.75596877431544, "lon": -9.829570337632225, "alt_km": 710.6445646770526, "timestamp": "2025-12-08T17:43:05.335748+00:00", "meta": {"OBJECT_NAME": "COSMOS 2251 DEB", "OBJECT_ID": "1993-036BMB", "EPOCH": "2025-12-02T07:38:53.705760", "MEAN_MOTION": 14.54689112, "ECCENTRICITY": 0.00134342, "INCLINATION": 74.038, "RA_OF_ASC_NODE": 203.6034, "ARG_OF_PERICENTER": 264.7495, "MEAN_ANOMALY": 95.2135, "EPHEMERIS_TYPE": 0, "CLASSIFICATION_TYPE": "U", "NORAD_CAT_ID": 37498, "ELEMENT_SET_NO": 999, "REV_AT_EPOCH": 65203, "BSTAR": 0.00080152077, "MEAN_MOTION_DOT": 3.406e-05, "MEAN_MOTION_DDOT": 0}, "tle": {"line1": "1 37498U 93036BMB 25336.31867715  .00003406  00000+0  80152-3 0  9990", "line2": "2 37498  74.0380 203.6034 0013434 264.7495  95.2135 14.54689112652037"}}, "geometry": {"type": "Point", "coordinates": [-9.829570337632225, 51.75596877431544]}}, {"type": "Feature", "properties": {"norad_id": 37499, "name": "COSMOS 2251 DEB", "group": "cosmos-2251-debris", "lat": -73.98251337997594, "lon": -116.05825140931606, "alt_km": 797.8843114754136, "timestamp": "2025-12-08T17:43:05.335758+00:00", "meta": {"OBJECT_NAME": "COSMOS 2251 DEB", "OBJECT_ID": "1993-036BMC", "EPOCH": "2025-12-07T17:01:21.884448", "MEAN_MOTION": 14.34335026, "ECCENTRICITY": 0.00267514, "INCLINATION": 74.0376, "RA_OF_ASC_NODE": 331.3997, "ARG_OF_PERICENTER": 48.9368, "MEAN_ANOMALY": 311.4089, "EPHEMERIS_TYPE": 0, "CLASSIFICATION_TYPE": "U", "NORAD_CAT_ID": 37499, "ELEMENT_SET_NO": 999, "REV_AT_EPOCH": 85077, "BSTAR": 0.00029302706, "MEAN_MOTION_DOT": 8.01e-06, "MEAN_MOTION_DDOT": 0}, "tle": {"line1": "1 37499U 93036BMC 25341.70928107  .00000801  00000+0  29303-3 0  9990", "line2": "2 37499  74.0376 331.3997 0026751  48.9368 311.4089 14.34335026850779"}}, "geometry": {"type": "Point", "coordinates": [-116.05825140931606, -73.98251337997594]}}]}